NORAD_CAT_ID,OBJECT_NAME,OBJECT_TYPE,EPOCH,MEAN_MOTION,ECCENTRICITY,INCLINATION,RA_OF_ASC_NODE,ARG_OF_PERICENTER,MEAN_ANOMALY,BSTAR,MEAN_MOTION_DOT,MEAN_MOTION_DDOT,TLE_LINE0,TLE_LINE1,TLE_LINE2,SEMIMAJOR_AXIS,PERIOD,APOGEE,PERIGEE,DECAYED
54764.0,STARLINK-5458,PAYLOAD,2024-03-15 04:18:23,15.08837281,0.0001709,53.2178,56.5018,103.4791,256.6392,-1.4491e-05,-5.19e-06,0.0,0 STARLINK-5458,1 54764U 22175G   24075.17943400 -.00000519  00000-0 -14491-4 0  9999,2 54764  53.2178  56.5018 0001709 103.4791 256.6392 15.08837281 68382,6917.889,95.438,540.936,538.571,0.0
54764.0,STARLINK-5458,PAYLOAD,2024-03-15 09:04:30,15.08857924,0.0001599,53.2163,55.6067,133.6267,226.4858,0.00012388,1.685e-05,0.0,0 STARLINK-5458,1 54764U 22175G   24075.37813360  .00001685  00000-0  12388-3 0  9997,2 54764  53.2163  55.6067 0001599 133.6267 226.4858 15.08857924 68412,6917.826,95.436,540.797,538.584,0.0
54764.0,STARLINK-5458,PAYLOAD,2024-03-16 04:09:09,15.08839492,0.0001685,53.2173,52.039,43.9983,316.1143,3.2477e-05,2.29e-06,0.0,0 STARLINK-5458,1 54764U 22175G   24076.17302198  .00000229  00000-0  32477-4 0  9993,2 54764  53.2173  52.0390 0001685  43.9983 316.1143 15.08839492 68534,6917.882,95.438,540.913,538.581,0.0
54764.0,STARLINK-5458,PAYLOAD,2024-03-16 08:55:19,15.08829196,0.0001397,53.2172,51.1472,95.2421,264.8731,-6.964e-05,-1.396e-05,0.0,0 STARLINK-5458,1 54764U 22175G   24076.37174903 -.00001396  00000-0 -69640-4 0  9996,2 54764  53.2172  51.1472 0001397  95.2421 264.8731 15.08829196 68566,6917.913,95.438,540.745,538.812,0.0
54764.0,STARLINK-5458,PAYLOAD,2024-03-17 07:10:43,15.08824359,0.0001519,53.2188,46.9829,91.3863,268.7303,-8.5973e-05,-1.655e-05,0.0,0 STARLINK-5458,1 54764U 22175G   24077.29912000 -.00001655  00000-0 -85973-4 0  9991,2 54764  53.2188  46.9829 0001519  91.3863 268.7303 15.08824359 70864,6917.928,95.439,540.844,538.742,0.0
54764.0,STARLINK-5458,PAYLOAD,2024-03-18 03:50:43,15.08826529,0.0001523,53.219,43.1165,82.1084,278.0081,0.00017527,2.502e-05,0.0,0 STARLINK-5458,1 54764U 22175G   24078.16023141  .00002502  00000-0  17527-3 0  9996,2 54764  53.2190  43.1165 0001523  82.1084 278.0081 15.08826529 68839,6917.922,95.438,540.84,538.733,0.0
54764.0,STARLINK-5458,PAYLOAD,2024-03-18 05:26:07,15.08828968,0.0001601,53.2196,42.8193,79.6325,280.4847,0.0001976,2.857e-05,0.0,0 STARLINK-5458,1 54764U 22175G   24078.22647059  .00002857  00000-0  19760-3 0  9997,2 54764  53.2196  42.8193 0001601  79.6325 280.4847 15.08828968 71007,6917.914,95.438,540.887,538.672,0.0
54764.0,STARLINK-5458,PAYLOAD,2024-03-18 21:19:58,15.08829956,0.000159,53.2192,39.8484,78.7108,281.4063,0.00021643,3.157e-05,0.0,0 STARLINK-5458,1 54764U 22175G   24078.88887611  .00003157  00000-0  21643-3 0  9996,2 54764  53.2192  39.8484 0001590  78.7108 281.4063 15.08829956 71108,6917.911,95.438,540.876,538.676,0.0
54764.0,STARLINK-5458,PAYLOAD,2024-03-19 06:52:16,15.08846135,0.0001548,53.219,38.0629,88.0712,272.0458,0.0002901,4.333e-05,0.0,0 STARLINK-5458,1 54764U 22175G   24079.28630769  .00004333  00000-0  29010-3 0  9994,2 54764  53.2190  38.0629 0001548  88.0712 272.0458 15.08846135 69004,6917.862,95.437,540.798,538.656,0.0
54764.0,STARLINK-5458,PAYLOAD,2024-03-20 01:56:55,15.08838764,0.0001895,53.2188,34.485,120.5348,239.5831,-2.5025e-05,-6.86e-06,0.0,0 STARLINK-5458,1 54764U 22175G   24080.08119732 -.00000686  00000-0 -25025-4 0  9998,2 54764  53.2188  34.4850 0001895 120.5348 239.5831 15.08838764 69124,6917.884,95.438,541.06,538.438,0.0
54764.0,STARLINK-5458,PAYLOAD,2024-03-20 06:43:05,15.0883869,0.000136,53.2171,33.6032,88.1295,271.9852,6.7776e-05,7.91e-06,0.0,0 STARLINK-5458,1 54764U 22175G   24080.27992079  .00000791  00000-0  67776-4 0  9996,2 54764  53.2171  33.6032 0001360  88.1295 271.9852 15.08838690 71311,6917.884,95.438,540.69,538.809,0.0
54764.0,STARLINK-5458,PAYLOAD,2024-03-21 03:23:02,15.08906228,0.0001767,53.2179,29.7347,112.1827,247.9353,0.00091031,0.00014255,0.0,0 STARLINK-5458,1 54764U 22175G   24081.14100038  .00014255  00000-0  91031-3 0  9999,2 54764  53.2179  29.7347 0001767 112.1827 247.9353 15.08906228 69289,6917.678,95.433,540.765,538.321,0.0
54764.0,STARLINK-5458,PAYLOAD,2024-03-21 12:55:24,15.08832967,0.0001262,53.2182,27.9494,84.4763,275.6373,-0.00016972,-2.987e-05,0.0,0 STARLINK-5458,1 54764U 22175G   24081.53847428 -.00002987  00000-0 -16972-3 0  9995,2 54764  53.2182  27.9494 0001262  84.4763 275.6373 15.08832967 69341,6917.902,95.438,540.64,538.894,0.0
54764.0,STARLINK-5458,PAYLOAD,2024-03-22 03:13:51,15.08855527,0.000127,53.2181,25.2768,108.4139,251.6992,0.00020287,2.944e-05,0.0,0 STARLINK-5458,1 54764U 22175G   24082.13462505  .00002944  00000-0  20287-3 0  9996,2 54764  53.2181  25.2768 0001270 108.4139 251.6992 15.08855527 69436,6917.833,95.437,540.576,538.819,0.0
54764.0,STARLINK-5458,PAYLOAD,2024-03-22 20:43:06,15.08851146,0.0001476,53.2179,22.006,96.772,263.3441,-0.00057224,-9.386e-05,0.0,0 STARLINK-5458,1 54764U 22175G   24082.86326872 -.00009386  00000-0 -57224-3 0  9992,2 54764  53.2179  22.0060 0001476  96.7720 263.3441 15.08851146 69540,6917.846,95.437,540.732,538.69,0.0
54764.0,STARLINK-5458,PAYLOAD,2024-03-23 01:29:16,15.08847234,0.0001436,53.218,21.1137,89.0071,271.1086,-0.00052727,-8.671e-05,0.0,0 STARLINK-5458,1 54764U 22175G   24083.06199114 -.00008671  00000-0 -52727-3 0  9991,2 54764  53.2180  21.1137 0001436  89.0071 271.1086 15.08847234 71736,6917.858,95.437,540.717,538.73,0.0
54764.0,STARLINK-5458,PAYLOAD,2024-03-24 04:30:49,15.08870168,0.0001348,53.2185,16.0588,103.258,256.8563,0.0007132,0.0001109,0.0,0 STARLINK-5458,1 54764U 22175G   24084.18806787  .00011090  00000-0  71320-3 0  9993,2 54764  53.2185  16.0588 0001348 103.2580 256.8563 15.08870168 69740,6917.788,95.436,540.586,538.721,0.0
54764.0,STARLINK-5458,PAYLOAD,2024-03-24 18:49:18,15.08825684,7.15e-05,53.2186,13.3829,111.4766,248.6302,-8.673e-05,-1.667e-05,0.0,0 STARLINK-5458,1 54764U 22175G   24084.78424634 -.00001667  00000-0 -86730-4 0  9999,2 54764  53.2186  13.3829 0000715 111.4766 248.6302 15.08825684 69836,6917.924,95.438,540.284,539.295,0.0
54764.0,STARLINK-5458,PAYLOAD,2024-03-25 04:21:37,15.08863636,0.0001735,53.2184,11.6024,84.4709,275.6481,0.0013656,0.00021526,0.0,0 STARLINK-5458,1 54764U 22175G   24085.18167901  .00021526  00000-0  13656-2 0  9994,2 54764  53.2184  11.6024 0001735  84.4709 275.6481 15.08863636 69894,6917.808,95.436,540.873,538.473,0.0
54764.0,STARLINK-5458,PAYLOAD,2024-03-25 12:18:33,15.08839749,0.0001373,53.2194,10.1109,104.4427,255.6718,0.0027931,0.00044444,0.0,0 STARLINK-5458,1 54764U 22175G   24085.51288297  .00044444  00000-0  27931-2 0  9998,2 54764  53.2194  10.1109 0001373 104.4427 255.6718 15.08839749 69946,6917.881,95.438,540.696,538.796,0.0
54764.0,STARLINK-5458,PAYLOAD,2024-03-26 04:12:25,15.08836185,0.0002383,53.2194,7.137,98.8197,261.3066,0.0010909,0.00017115,0.0,0 STARLINK-5458,1 54764U 22175G   24086.17529140  .00017115  00000-0  10909-2 0  9998,2 54764  53.2194   7.1370 0002383  98.8197 261.3066 15.08836185 70048,6917.892,95.438,541.406,538.109,0.0
54764.0,STARLINK-5458,PAYLOAD,2024-03-26 12:09:20,15.08831572,0.0001381,53.2192,5.6501,104.3864,255.7282,0.00028147,4.193e-05,0.0,0 STARLINK-5458,1 54764U 22175G   24086.50649013  .00004193  00000-0  28147-3 0  9993,2 54764  53.2192   5.6501 0001381 104.3864 255.7282 15.08831572 70093,6917.906,95.438,540.727,538.816,0.0
54764.0,STARLINK-5458,PAYLOAD,2024-03-26 21:41:39,15.08838268,0.0001445,53.2186,3.8685,110.3282,249.7866,0.0010379,0.00016268,0.0,0 STARLINK-5458,1 54764U 22175G   24086.90393283  .00016268  00000-0  10379-2 0  9995,2 54764  53.2186   3.8685 0001445 110.3282 249.7866 15.08838268 72318,6917.886,95.438,540.75,538.751,0.0
54764.0,STARLINK-5458,PAYLOAD,2024-03-27 00:52:26,15.08842414,0.0001476,53.2184,3.2747,91.2622,268.8539,0.00072425,0.00011258,0.0,0 STARLINK-5458,1 54764U 22175G   24087.03641479  .00011258  00000-0  72425-3 0  9998,2 54764  53.2184   3.2747 0001476  91.2622 268.8539 15.08842414 72337,6917.873,95.437,540.759,538.717,0.0
54764.0,STARLINK-5458,PAYLOAD,2024-03-27 21:32:27,15.08845506,0.0001659,53.2185,359.4113,91.3378,268.7804,0.00035974,5.443e-05,0.0,0 STARLINK-5458,1 54764U 22175G   24087.89753503  .00005443  00000-0  35974-3 0  9991,2 54764  53.2185 359.4113 0001659  91.3378 268.7804 15.08845506 70307,6917.864,95.437,540.876,538.581,0.0
54764.0,STARLINK-5458,PAYLOAD,2024-03-28 03:53:58,15.08857002,0.000137,53.2185,358.2167,97.9454,262.1694,0.00046021,7.047e-05,0.0,0 STARLINK-5458,1 54764U 22175G   24088.16248779  .00007047  00000-0  46021-3 0  9993,2 54764  53.2185 358.2167 0001370  97.9454 262.1694 15.08857002 70343,6917.828,95.436,540.641,538.746,0.0
54764.0,STARLINK-5458,PAYLOAD,2024-03-28 22:58:35,15.08868686,0.0001424,53.2186,354.6523,93.9367,266.1788,0.00050023,7.688e-05,0.0,0 STARLINK-5458,1 54764U 22175G   24088.95735813  .00007688  00000-0  50023-3 0  9998,2 54764  53.2186 354.6523 0001424  93.9367 266.1788 15.08868686 72620,6917.793,95.436,540.643,538.673,0.0
54764.0,STARLINK-5458,PAYLOAD,2024-03-29 00:33:58,15.0887031,0.0001403,53.2187,354.3549,86.6577,273.4576,0.000516,7.94e-05,0.0,0 STARLINK-5458,1 54764U 22175G   24089.02359703  .00007940  00000-0  51600-3 0  9990,2 54764  53.2187 354.3549 0001403  86.6577 273.4576 15.08870310 72639,6917.788,95.436,540.623,538.682,0.0
54764.0,STARLINK-5458,PAYLOAD,2024-03-29 21:13:59,15.08850992,0.0001262,53.2182,350.4834,103.3056,256.8077,-4.5504e-05,-1.012e-05,0.0,0 STARLINK-5458,1 54764U 22175G   24089.88471360 -.00001012  00000-0 -45504-4 0  9991,2 54764  53.2182 350.4834 0001262 103.3056 256.8077 15.08850992 70600,6917.847,95.437,540.585,538.839,0.0
54764.0,STARLINK-5458,PAYLOAD,2024-03-29 22:49:22,15.08850275,0.0001245,53.2183,350.1861,103.1658,256.9473,-5.1716e-05,-1.111e-05,0.0,0 STARLINK-5458,1 54764U 22175G   24089.95095336 -.00001111  00000-0 -51716-4 0  9996,2 54764  53.2183 350.1861 0001245 103.1658 256.9473 15.08850275 72770,6917.849,95.437,540.575,538.853,0.0
